ONEWEB-0520             
1 54138U 22138AB  25333.73166969  .00000038  00000+0  63129-4 0  9995
2 54138  87.9209 344.6437 0002100  90.0218 270.1155 13.19724032150517
ONEWEB-0521             
1 54139U 22138AC  25333.30994044 -.00000021  00000+0 -85450-4 0  9997
2 54139  87.9209 344.7120 0001698  98.8400 261.2925 13.19723824150400
ONEWEB-0522             
1 54140U 22138AD  25333.74431560  .00000089  00000+0  19086-3 0  9999
2 54140  87.9209 344.6273 0001991  92.4801 267.6560 13.19726063150505
ONEWEB-0523             
1 54141U 22138AE  25333.71435963 -.00000017  00000+0 -74940-4 0  9992
2 54141  87.9180 314.2215 0001024  79.3534 280.7714 13.20773089152979
ONEWEB-0524             
1 54142U 22138AF  25333.24877037  .00000020  00000+0  18231-4 0  9996
2 54142  87.9184 314.3165 0001793  56.6372 303.4932 13.20770204152915
ONEWEB-0525             
1 54143U 22138AG  25333.30836213  .00000077  00000+0  15997-3 0  9992
2 54143  87.9204 344.7344 0002113  90.7973 269.3402 13.19724400150463
ONEWEB-0526             
1 54144U 22138AH  25333.79642264 -.00000185  00000+0 -49529-3 0  9997
2 54144  87.9207 344.6255 0001871  89.8689 270.2658 13.19725590150500
ONEWEB-0529             
1 54145U 22138AJ  25333.57213601  .00000078  00000+0  16221-3 0  9995
2 54145  87.9191 344.6994 0002041  89.1064 271.0303 13.19723537150496
